STARLINK-36822          
1 67909U 26036F   26079.16668981  .00066554  00000+0  11324-2 0  9995
2 67909  43.0002 187.1908 0001759 271.5950  22.8722 15.50534746  5331
STARLINK-36847          
1 67910U 26036G   26079.16668981  .00071450  00000+0  12147-2 0  9992
2 67910  43.0003 187.2380 0001410 298.1069 337.3417 15.50530550  5333
STARLINK-36736          
1 67911U 26036H   26079.16668981 -.01927893  00000+0 -37829-1 0  9990
2 67911  43.0005 186.6744 0001266 282.3522 221.4032 15.49681247  5335
STARLINK-36676          
1 67912U 26036J   26079.16668981  .00078171  00000+0  13275-2 0  9994
2 67912  43.0002 186.8037 0001833 254.5208 196.6945 15.50525762  5339
STARLINK-36690          
1 67913U 26036K   26079.16668981  .00064401  00000+0  10962-2 0  9996
2 67913  43.0006 186.7897 0001506 275.8553 180.7437 15.50537914  5335
STARLINK-36724          
1 67914U 26036L   26079.16668981  .00065953  00000+0  11227-2 0  9995
2 67914  43.0008 186.7424 0001385 279.3485 196.2349 15.50526552  5332
STARLINK-36723          
1 67915U 26036M   26079.16668981  .00012471  00000+0  21812-3 0  9995
2 67915  43.0000 186.6634 0001800 277.5152 230.1747 15.50571970  5334
STARLINK-36721          
1 67916U 26036N   26079.16668981 -.00433841  00000+0 -77632-2 0  9996
2 67916  43.0007 186.6403 0001512 268.7870 248.3791 15.50734769  5332
STARLINK-36722          
1 67917U 26036P   26079.16668981 -.01568242  00000+0 -28254-1 0  9997
2 67917  43.0002 186.4227 0001458 267.2404 337.9699 15.51917427  5333
STARLINK-36341          
1 67918U 26036Q   26079.00002314 -.00110510  00000+0 -19017-2 0  9991
2 67918  43.0012 188.5503 0001472 266.4346  19.8654 15.50620389  5308
STARLINK-36663          
1 67919U 26036R   26079.16668981 -.01383120  00000+0 -25909-1 0  9993
2 67919  43.0005 186.5998 0001264 293.6818 239.7522 15.50952890  5337
STARLINK-36375          
1 67920U 26036S   26079.16668981 -.01888034  00000+0 -38659-1 0  9995
2 67920  43.0004 186.9727 0002019 263.1468 118.6140 15.48408587  5331
STARLINK-36405          
1 67921U 26036T   26079.00002314 -.00108155  00000+0 -18606-2 0  9990
2 67921  43.0010 188.5148 0001980 271.6034  28.9450 15.50617847  5301
STARLINK-36383          
1 67922U 26036U   26078.61028267  .00355377  00000+0  16170-2 0  9994
2 67922  43.0003 188.8169 0001782 301.1331  58.9365 15.82080790  5246
STARLINK-36406          
1 67923U 26036V   26078.70866510  .00076862  00000+0  13009-2 0  9993
2 67923  42.9996 190.4955 0002822 273.5571  86.4967 15.50624370  5238
STARLINK-36714          
1 67924U 26036W   26079.16668981  .00031186  00000+0  53568-3 0  9992
2 67924  43.0008 186.8846 0001604 278.3398 138.8620 15.50558427  5338
STARLINK-36726          
1 67925U 26036X   26079.00002314 -.00106842  00000+0 -18380-2 0  9994
2 67925  43.0012 188.4870 0001474 267.9339  43.4460 15.50613406  5302
STARLINK-36758          
1 67926U 26036Y   26079.16668981  .00069262  00000+0  11780-2 0  9999
2 67926  43.0005 187.0334 0001723 273.2387  83.3465 15.50530987  5338
STARLINK-36728          
1 67927U 26036Z   26079.16668981  .00080109  00000+0  13578-2 0  9990
2 67927  43.0006 186.7835 0001744 305.0417 152.8250 15.50569907  5331
STARLINK-36771          
1 67928U 26036AA  26079.16668981  .00066962  00000+0  11396-2 0  9998
2 67928  43.0006 186.9111 0001623 261.8142 144.2949 15.50526966  5339
STARLINK-36809          
1 67929U 26036AB  26079.16668981  .00065215  00000+0  11099-2 0  9999
2 67929  43.0006 186.8878 0001873 248.8628 166.4307 15.50536762  5339
STARLINK-36865          
1 67930U 26036AC  26079.16668981  .00068284  00000+0  11614-2 0  9993
2 67930  43.0002 186.5579 0001706 275.0504 273.4532 15.50535696  5336
STARLINK-36781          
1 67931U 26036AD  26079.16668981 -.00006793  00000+0 -11008-3 0  9991
2 67931  43.0003 186.6089 0001584 283.3371 244.8022 15.50574155  5332
STARLINK-36301          
1 67932U 26037A   26079.16668981 -.01937631  00000+0 -15807-1 0  9997
2 67932  42.9986 134.4661 0001261 265.6171 310.0747 15.72609052  4799
STARLINK-36852          
1 67933U 26037B   26079.16668981 -.01892538  00000+0 -30574-1 0  9992
2 67933  42.9985 135.1144 0001409 256.9818  58.2791 15.55492785  4882
STARLINK-36861          
1 67934U 26037C   26079.16668981 -.01903067  00000+0 -18405-1 0  9992
2 67934  42.9992 134.5453 0000919 272.9156 271.4220 15.68541716  4884
STARLINK-36860          
1 67935U 26037D   26079.16668981 -.01881086  00000+0 -24573-1 0  9992
2 67935  42.9988 134.8116 0001594 278.3889 159.0389 15.61034299  4885
STARLINK-36848          
1 67936U 26037E   26079.16668981 -.01878614  00000+0 -26995-1 0  9996
2 67936  42.9990 134.9071 0001747 272.7755 125.7853 15.58562114  4884
STARLINK-36370          
1 67937U 26037F   26079.16668981 -.01887369  00000+0 -23824-1 0  9992
2 67937  42.9993 134.7624 0001360 281.8521 175.4922 15.61923906  4886
STARLINK-36371          
1 67938U 26037G   26079.16668981 -.01896815  00000+0 -20508-1 0  9995
2 67938  42.9994 134.5881 0001219 284.3267 242.3422 15.65816991  4887
STARLINK-36246          
1 67939U 26037H   26079.16668981 -.01919983  00000+0 -26804-1 0  9993
2 67939  42.9991 134.8450 0001709 274.0242 149.0636 15.59389838  4791
STARLINK-36907          
1 67940U 26037J   26079.16668981 -.01918496  00000+0 -16922-1 0  9993
2 67940  42.9990 134.3992 0001185 258.7971 343.2032 15.70755866  4883
STARLINK-36927          
1 67941U 26037K   26079.16668981 -.01898760  00000+0 -18820-1 0  9994
2 67941  42.9995 134.4545 0001105 267.7631 312.1931 15.67941627  4880
STARLINK-36914          
1 67942U 26037L   26079.16668981 -.01898747  00000+0 -14275-1 0  9990
2 67942  42.9991 134.3386 0001226 267.2765 359.1809 15.74940556  4889
STARLINK-36851          
1 67943U 26037M   26079.16668981 -.01899659  00000+0 -18074-1 0  9995
2 67943  42.9991 134.4573 0000856 264.5442 314.1435 15.68929079  4885
STARLINK-36892          
1 67944U 26037N   26079.16668981 -.01898877  00000+0 -17467-1 0  9992
2 67944  42.9990 134.4149 0001075 261.7417 334.2716 15.69732374  4885
STARLINK-36908          
1 67945U 26037P   26079.16668981 -.01906808  00000+0 -16935-1 0  9996
2 67945  42.9989 134.3711 0001120 263.4747 349.6585 15.70576034  4889
STARLINK-36909          
1 67946U 26037Q   26079.16668981 -.01901265  00000+0 -13002-1 0  9991
2 67946  42.9987 134.2456 0001414 267.4440  35.6539 15.77064359  4883
STARLINK-36920          
1 67947U 26037R   26079.16668981 -.01905183  00000+0 -20552-1 0  9993
2 67947  42.9992 134.4888 0001098 266.7455 299.2689 15.65887683  4881
STARLINK-36873          
1 67948U 26037S   26079.16668981 -.01904430  00000+0 -21604-1 0  9997
2 67948  42.9995 134.5222 0001085 272.6040 279.7120 15.64641938  4883
STARLINK-36863          
1 67949U 26037T   26079.16668981 -.01911245  00000+0 -17985-1 0  9997
2 67949  42.9987 134.3629 0001245 264.5043 351.4177 15.69207520  4885
STARLINK-36887          
1 67950U 26037U   26079.16668981 -.01893684  00000+0 -31009-1 0  9998
2 67950  42.9992 134.9519 0001428 263.8720 115.7337 15.55132211  4882
STARLINK-36897          
1 67951U 26037V   26079.16668981 -.01877350  00000+0 -18408-1 0  9999
2 67951  42.9986 134.3723 0001103 260.1222 352.6084 15.68166983  4882
STARLINK-36381          
1 67952U 26037W   26079.16668981 -.01891297  00000+0 -19730-1 0  9995
2 67952  42.9991 134.3971 0001057 264.8284 337.7557 15.66685788  4887
STARLINK-36824          
1 67953U 26037X   26079.16668981 -.01870779  00000+0 -28312-1 0  9994
2 67953  42.9991 134.8161 0001659 281.1682 152.9069 15.57186209  4885
STARLINK-36869          
1 67954U 26037Y   26079.16668981 -.01858578  00000+0 -28331-1 0  9999
2 67954  42.9991 134.8073 0001612 277.6733 160.4185 15.56973554  4883
STARLINK-36872          
1 67955U 26037Z   26079.16668981 -.01914869  00000+0 -17100-1 0  9998
2 67955  42.9989 134.2542 0001396 260.0116  38.9028 15.70456689  4882
STARLINK-36918          
1 67956U 26037AA  26079.16668981 -.01892681  00000+0 -19474-1 0  9992
2 67956  42.9991 134.3425 0001128 261.1825   2.8957 15.67024083  4885
STARLINK-36829          
1 67957U 26037AB  26079.16668981 -.01895300  00000+0 -22378-1 0  9991
2 67957  42.9990 134.4854 0001082 271.1018 295.5712 15.63626932  4883
STARLINK-36799          
1 67958U 26037AC  26079.16668981 -.01893252  00000+0 -15533-1 0  9991
2 67958  42.9986 134.1788 0001368 268.1202  61.2886 15.72934416  4889
STARLINK-36834          
1 67959U 26037AD  26079.16668981 -.01895529  00000+0 -22576-1 0  9996
2 67959  42.9994 134.4397 0001096 264.8198 319.7418 15.63409632  4882
STARLINK-36841          
1 67960U 26037AE  26079.16668981 -.01892154  00000+0 -21669-1 0  9991
2 67960  42.9989 134.4123 0001087 266.3571 329.1810 15.64385055  4881
STARLINK-36912          
1 67961U 26038A   26079.16668981 -.02335630  00000+0 -32754-1 0  9992
2 67961  97.2852  89.9594 0001310  99.0534 262.8340 15.60135963  4887
STARLINK-36881          
1 67962U 26038B   26079.16668981 -.02332138  00000+0 -32229-1 0  9990
2 67962  97.2850  89.9638 0001415  97.0463 274.7963 15.60510256  4885
STARLINK-36357          
1 67963U 26038C   26079.16668981 -.02501979  00000+0 -42530-1 0  9998
2 67963  97.2846  89.9362 0001492 102.0144 216.5539 15.55301525  4887
STARLINK-36349          
1 67964U 26038D   26079.16668981 -.02349688  00000+0 -39568-1 0  9993
2 67964  97.2845  89.9348 0001801 109.3035 201.9118 15.55299598  4881
STARLINK-36806          
1 67965U 26038E   26079.16668981 -.02332811  00000+0 -31125-1 0  9995
2 67965  97.2854  89.9754 0001369  87.9466 311.0983 15.61420720  4884
STARLINK-36820          
1 67966U 26038F   26079.16668981 -.02358785  00000+0 -31051-1 0  9992
2 67966  97.2848  89.9793 0001452  87.6916 320.9779 15.61805159  4886
STARLINK-36819          
1 67967U 26038G   26079.16668981 -.00022040  00000+0 -40461-3 0  9990
2 67967  97.2851  89.8398 0001100  83.2961   5.2138 15.49196328  4882
